[
  {
    "Dealership Name": "Norm Reeves Honda Superstore Irvine",
    "Street Address": "16 Auto Center Dr",
    "City": "Irvine",
    "State": "CA",
    "ZIP": "92618",
    "Printer Count": 0.0
  },
  {
    "Dealership Name": "Norm Reeves Volkswagen Superstore Irvine",
    "Street Address": "20 Auto Center Dr",
    "City": "Irvine",
    "State": "CA",
    "ZIP": "92618",
    "Printer Count": 0.0
  },
  {
    "Dealership Name": "Norm Reeves Honda Superstore Cerritos",
    "Street Address": "18500 Studebaker Road",
    "City": "Cerritos",
    "State": "CA",
    "ZIP": "90703",
    "Printer Count": 0.0
  },
  {
    "Dealership Name": "Norm Reeves Honda Superstore Huntington Beach",
    "Street Address": "19131 Beach Boulevard",
    "City": "Huntington Beach",
    "State": "CA",
    "ZIP": "92648",
    "Printer Count": 0.0
  },
  {
    "Dealership Name": "Norm Reeves Honda Superstore West Covina",
    "Street Address": "1840 East Garvey Ave., South",
    "City": "West Covina",
    "State": "CA",
    "ZIP": "91791",
    "Printer Count": 0.0
  },
  {
    "Dealership Name": "Norm Reeves Ford Superstore Cerritos",
    "Street Address": "18900 Studebaker Road",
    "City": "Cerritos",
    "State": "CA",
    "ZIP": "90703",
    "Printer Count": 0.0
  },
  {
    "Dealership Name": "Norm Reeves Lincoln Cerritos",
    "Street Address": "18900 Studebaker Road",
    "City": "Cerritos",
    "State": "CA",
    "ZIP": "90703",
    "Printer Count": 0.0
  },
  {
    "Dealership Name": "Norm Reeves Hyundai Superstore Cerritos",
    "Street Address": "10901 East 183rd Street",
    "City": "Cerritos",
    "State": "CA",
    "ZIP": "90703",
    "Printer Count": 0.0
  },
  {
    "Dealership Name": "Norm Reeves Toyota San Diego",
    "Street Address": "5910 Mission Gorge Rd.",
    "City": "San Diego",
    "State": "CA",
    "ZIP": "92120",
    "Printer Count": 0.0
  },
  {
    "Dealership Name": "Norm Reeves Genesis of Cerritos",
    "Street Address": "10907 E 183rd St",
    "City": "Cerritos",
    "State": "CA",
    "ZIP": "90703",
    "Printer Count": 0.0
  },
  {
    "Dealership Name": "Norm Reeves Genesis of Irvine",
    "Street Address": "14 Auto Center Drive",
    "City": "Irvine",
    "State": "CA",
    "ZIP": "92618",
    "Printer Count": 0.0
  },
  {
    "Dealership Name": "Norm Reeves Honda Superstore Port Charlotte",
    "Street Address": "1252 Tamiami Trail",
    "City": "Port Charlotte",
    "State": "FL",
    "ZIP": "33953",
    "Printer Count": 0.0
  },
  {
    "Dealership Name": "Norm Reeves Volkswagen Superstore Port Charlotte",
    "Street Address": "1252 Tamiami Trail",
    "City": "Port Charlotte",
    "State": "FL",
    "ZIP": "33953",
    "Printer Count": 0.0
  },
  {
    "Dealership Name": "Norm Reeves Honda Superstore North Richland Hills",
    "Street Address": "7551 NE Loop 820 North",
    "City": "Richland Hills",
    "State": "TX",
    "ZIP": "76180",
    "Printer Count": 0.0
  }
]